{
  "norad_id": 65687,
  "name": "STARLINK-34856",
  "history": [
    {
      "epoch": "2026-03-28T20:59:19.492224Z",
      "apogee_km": 475.80450104486044,
      "perigee_km": 474.5459587869591,
      "latitude_deg": 3.9978251870661876e-05,
      "longitude_deg": 115.24119902649183,
      "height_km": 475.9404763690917,
      "semi_major_axis_km": 6853.3122299159095,
      "eccentricity": 9.182e-05,
      "inclination_deg": 53.1581,
      "raan_deg": 256.3611,
      "arg_perigee_deg": 77.7863,
      "mean_anomaly_deg": 282.3241,
      "mean_motion_rev_day": 15.30213343
    }
  ]
}