{"fetched_at":"2026-03-30T06:02:59Z","count":15439,"tles":[{"name":"STARLINK-34856","line1":"1 65687U 25212M   26087.87453116  .00035239  00000+0  11958-2 0  9999","line2":"2 65687  53.1581 256.3611 0000918  77.7863 282.3241 15.30213343 30131","category":"Starlink"}]}